FLOCK 4G-13             
1 62621U 25009N   26068.70638971  .00053076  00000+0  16695-2 0  9995
2 62621  97.4019 151.0918 0003801 292.7207  67.3633 15.32770015 63700
STARLINK-32779          
1 63030U 25034B   26068.71141832  .00040771  00000+0  13815-2 0  9993
2 63030  53.1574 271.2683 0001004  65.7568 294.3537 15.30191894 58906
